line1,line2,validFromUtcTime
1 00000U 00000E   26001.00000000  .00000000  00000-0  27772-4 0    01,2 00000  88.8591 105.3339 0010182 270.0586 232.4065 13.55321457    03,2026-01-01T00:00:00Z
1 00000U 00000E   26002.00000000  .00000000  00000-0  27772-4 0    02,2 00000  88.8591 105.2178 0010182 267.1488  71.5622 13.55321495    04,2026-01-02T00:00:00Z
